{
    "links": {
        "self": "http://www.neowsapp.com/rest/v1/neo/3772994?api_key=iIulBulltgU6a56xZRHN4H3l9WmuAYTsLGpBGhQ2"
    },
    "id": "3772994",
    "neo_reference_id": "3772994",
    "name": "(2017 FG101)",
    "designation": "2017 FG101",
    "nasa_jpl_url": "http://ssd.jpl.nasa.gov/sbdb.cgi?sstr=3772994",
    "absolute_magnitude_h": 26.2,
    "estimated_diameter": {
        "kilometers": {
            "estimated_diameter_min": 0.0152951935,
            "estimated_diameter_max": 0.0342010925
        },
        "meters": {
            "estimated_diameter_min": 15.2951935344,
            "estimated_diameter_max": 34.201092472
        },
        "miles": {
            "estimated_diameter_min": 0.0095039897,
            "estimated_diameter_max": 0.021251567
        },
        "feet": {
            "estimated_diameter_min": 50.1810827555,
            "estimated_diameter_max": 112.2083122258
        }
    },
    "is_potentially_hazardous_asteroid": false,
    "close_approach_data": [
        {
            "close_approach_date": "2017-03-27",
            "close_approach_date_full": "2017-Mar-27 20:41",
            "epoch_date_close_approach": 1490647260000,
            "relative_velocity": {
                "kilometers_per_second": "7.1208244121",
                "kilometers_per_hour": "25634.9678835353",
                "miles_per_hour": "15928.5721274111"
            },
            "miss_distance": {
                "astronomical": "0.0632255841",
                "lunar": "24.5947522149",
                "kilometers": "9458412.710865867",
                "miles": "5877185.1298362846"
            },
            "orbiting_body": "Earth"
        },
        {
            "close_approach_date": "2020-02-06",
            "close_approach_date_full": "2020-Feb-06 08:51",
            "epoch_date_close_approach": 1580979060000,
            "relative_velocity": {
                "kilometers_per_second": "18.7057584915",
                "kilometers_per_hour": "67340.7305695336",
                "miles_per_hour": "41842.9111697193"
            },
            "miss_distance": {
                "astronomical": "0.4802381426",
                "lunar": "186.8126374714",
                "kilometers": "71842603.225716262",
                "miles": "44640923.6173259356"
            },
            "orbiting_body": "Earth"
        },
        {
            "close_approach_date": "2087-05-06",
            "close_approach_date_full": "2087-May-06 09:56",
            "epoch_date_close_approach": 3703053360000,
            "relative_velocity": {
                "kilometers_per_second": "17.7855892009",
                "kilometers_per_hour": "64028.1211234121",
                "miles_per_hour": "39784.5844836001"
            },
            "miss_distance": {
                "astronomical": "0.4321587748",
                "lunar": "168.1097633972",
                "kilometers": "64650032.211889676",
                "miles": "40171667.2315064888"
            },
            "orbiting_body": "Earth"
        },
        {
            "close_approach_date": "2090-03-20",
            "close_approach_date_full": "2090-Mar-20 16:32",
            "epoch_date_close_approach": 3793710720000,
            "relative_velocity": {
                "kilometers_per_second": "7.0295075174",
                "kilometers_per_hour": "25306.227062745",
                "miles_per_hour": "15724.3053657373"
            },
            "miss_distance": {
                "astronomical": "0.0725391456",
                "lunar": "28.2177276384",
                "kilometers": "10851701.673379872",
                "miles": "6742934.7457993536"
            },
            "orbiting_body": "Earth"
        }
    ],
    "orbital_data": {
        "orbit_id": "7",
        "orbit_determination_date": "2017-04-06 08:19:03",
        "first_observation_date": "2017-03-25",
        "last_observation_date": "2017-04-04",
        "data_arc_in_days": 10,
        "observations_used": 37,
        "orbit_uncertainty": "8",
        "minimum_orbit_intersection": ".0622175",
        "jupiter_tisserand_invariant": "3.633",
        "epoch_osculation": "2457842.5",
        "eccentricity": ".4831012700277519",
        "semi_major_axis": "2.043884030182453",
        "inclination": "7.994593440265501",
        "ascending_node_longitude": "189.4069268629198",
        "orbital_period": "1067.290889743785",
        "perihelion_distance": "1.05648105941187",
        "perihelion_argument": "349.0450764036028",
        "aphelion_distance": "3.031287000953037",
        "perihelion_time": "2457833.085765029207",
        "mean_anomaly": "3.175446002634837",
        "mean_motion": ".337302607432939",
        "equinox": "J2000",
        "orbit_class": {
            "orbit_class_type": "AMO",
            "orbit_class_description": "Near-Earth asteroid orbits similar to that of 1221 Amor",
            "orbit_class_range": "1.017 AU < q (perihelion) < 1.3 AU"
        }
    },
    "is_sentry_object": false
}